{
  "norad_id": 66069,
  "name": "STARLINK-35279",
  "history": [
    {
      "epoch": "2026-03-28T21:27:03.012768Z",
      "apogee_km": 476.01572826708707,
      "perigee_km": 474.3257025844623,
      "latitude_deg": 3.5109125081283807e-06,
      "longitude_deg": 7.8581589247533365,
      "height_km": 476.0475905047457,
      "semi_major_axis_km": 6853.307715425774,
      "eccentricity": 0.0001233,
      "inclination_deg": 53.1591,
      "raan_deg": 155.9284,
      "arg_perigee_deg": 88.5651,
      "mean_anomaly_deg": 271.5491,
      "mean_motion_rev_day": 15.30214855
    },
    {
      "epoch": "2026-03-29T08:25:25.292352Z",
      "apogee_km": 476.03361166581453,
      "perigee_km": 474.3291913793555,
      "latitude_deg": 9.628391612303373e-06,
      "longitude_deg": -159.30790714027805,
      "height_km": 476.1962129221529,
      "semi_major_axis_km": 6853.318401522584,
      "eccentricity": 0.00012435,
      "inclination_deg": 53.1582,
      "raan_deg": 153.8058,
      "arg_perigee_deg": 97.8827,
      "mean_anomaly_deg": 262.2315,
      "mean_motion_rev_day": 15.30211276
    }
  ]
}